NEXTSAT-1               
1 43811U 18099BF  26068.68342010  .00004546  00000+0  29857-3 0  9992
2 43811  97.4203 114.8574 0011320 323.9610  36.0854 15.08057555396886
STARLINK-34630          
1 64948U 25158S   26068.57966192  .00002606  00000+0  18476-3 0  9991
2 64948  97.6024 294.0455 0001986  82.2798 277.8654 15.05650622 35346
